KUIPER-00027            
1 63740U 25088S   25223.91668981 -.00953061  00000+0 -35631-1 0  9999
2 63740  51.8773 310.8238 0001103 171.8743 201.3545 15.29376816 16447
KUIPER-00028            
1 63741U 25088T   25223.91668981 -.00839267  00000+0 -28664-1 0  9999
2 63741  51.8740 310.4468 0002676  74.6349  96.4325 15.32347647 16859
KUIPER-00029            
1 63742U 25088U   25223.54927316  .00015615  00000+0  42632-3 0  9993
2 63742  51.8696 312.8303 0004485 117.8794 242.2647 15.37585074 16321
KUIPER-00030            
1 63743U 25088V   25223.91668981 -.01815484  00000+0 -17609+0 0  9992
2 63743  51.8923 318.6022 0013838 103.3295  94.2142 14.95968653 16556
KUIPER-00031            
1 63744U 25088W   25223.91668981 -.00021361  00000+0 -83661-3 0  9990
2 63744  51.8737 311.2014 0004060 120.7265  71.2089 15.24854074 16376
KUIPER-00032            
1 63745U 25088X   25223.54198983  .00013689  00000+0  49069-3 0  9996
2 63745  51.8723 313.4992 0004950  88.5410 271.6140 15.28996615 17313
KUIPER-00033            
1 63746U 25088Y   25223.60863209  .00004854  00000+0  66495-3 0  9990
2 63746  51.9009 335.5706 0002901 188.2711 171.8204 14.79957812 16497
KUIPER-00034            
1 63747U 25088Z   25223.55630453  .00015753  00000+0  41944-3 0  9990
2 63747  51.8718 312.1566 0001398  96.2286 263.8860 15.38361001 16498
