<?xml version="1.0" encoding="UTF-8"?>
<ndm xmlns:xsi="http://www.w3.org/2001/XMLSchema-instance" xsi:noNamespaceSchemaLocation="https://sanaregistry.org/r/ndmxml_unqualified/ndmxml-2.0.0-master-2.0.xsd">
<omm id="CCSDS_OMM_VERS" version="2.0">
<header><CREATION_DATE/><ORIGINATOR/></header><body><segment><metadata><OBJECT_NAME>KUIPER-00027</OBJECT_NAME><OBJECT_ID>2025-088S</OBJECT_ID><CENTER_NAME>EARTH</CENTER_NAME><REF_FRAME>TEME</REF_FRAME><TIME_SYSTEM>UTC</TIME_SYSTEM><MEAN_ELEMENT_THEORY>SGP4</MEAN_ELEMENT_THEORY></metadata><data><meanElements><EPOCH>2025-08-11T22:00:01.999584</EPOCH><MEAN_MOTION>15.29376816</MEAN_MOTION><ECCENTRICITY>.0001103</ECCENTRICITY><INCLINATION>51.8773</INCLINATION><RA_OF_ASC_NODE>310.8238</RA_OF_ASC_NODE><ARG_OF_PERICENTER>171.8743</ARG_OF_PERICENTER><MEAN_ANOMALY>201.3545</MEAN_ANOMALY></meanElements><tleParameters><EPHEMERIS_TYPE>0</EPHEMERIS_TYPE><CLASSIFICATION_TYPE>U</CLASSIFICATION_TYPE><NORAD_CAT_ID>63740</NORAD_CAT_ID><ELEMENT_SET_NO>999</ELEMENT_SET_NO><REV_AT_EPOCH>1644</REV_AT_EPOCH><BSTAR>-.35631E-1</BSTAR><MEAN_MOTION_DOT>-.953061E-2</MEAN_MOTION_DOT><MEAN_MOTION_DDOT>0</MEAN_MOTION_DDOT></tleParameters></data></segment></body></omm>
<omm id="CCSDS_OMM_VERS" version="2.0">
<header><CREATION_DATE/><ORIGINATOR/></header><body><segment><metadata><OBJECT_NAME>KUIPER-00028</OBJECT_NAME><OBJECT_ID>2025-088T</OBJECT_ID><CENTER_NAME>EARTH</CENTER_NAME><REF_FRAME>TEME</REF_FRAME><TIME_SYSTEM>UTC</TIME_SYSTEM><MEAN_ELEMENT_THEORY>SGP4</MEAN_ELEMENT_THEORY></metadata><data><meanElements><EPOCH>2025-08-11T22:00:01.999584</EPOCH><MEAN_MOTION>15.32347647</MEAN_MOTION><ECCENTRICITY>.0002676</ECCENTRICITY><INCLINATION>51.8740</INCLINATION><RA_OF_ASC_NODE>310.4468</RA_OF_ASC_NODE><ARG_OF_PERICENTER>74.6349</ARG_OF_PERICENTER><MEAN_ANOMALY>96.4325</MEAN_ANOMALY></meanElements><tleParameters><EPHEMERIS_TYPE>0</EPHEMERIS_TYPE><CLASSIFICATION_TYPE>U</CLASSIFICATION_TYPE><NORAD_CAT_ID>63741</NORAD_CAT_ID><ELEMENT_SET_NO>999</ELEMENT_SET_NO><REV_AT_EPOCH>1685</REV_AT_EPOCH><BSTAR>-.28664E-1</BSTAR><MEAN_MOTION_DOT>-.839267E-2</MEAN_MOTION_DOT><MEAN_MOTION_DDOT>0</MEAN_MOTION_DDOT></tleParameters></data></segment></body></omm>
<omm id="CCSDS_OMM_VERS" version="2.0">
<header><CREATION_DATE/><ORIGINATOR/></header><body><segment><metadata><OBJECT_NAME>KUIPER-00029</OBJECT_NAME><OBJECT_ID>2025-088U</OBJECT_ID><CENTER_NAME>EARTH</CENTER_NAME><REF_FRAME>TEME</REF_FRAME><TIME_SYSTEM>UTC</TIME_SYSTEM><MEAN_ELEMENT_THEORY>SGP4</MEAN_ELEMENT_THEORY></metadata><data><meanElements><EPOCH>2025-08-11T13:10:57.201024</EPOCH><MEAN_MOTION>15.37585074</MEAN_MOTION><ECCENTRICITY>.0004485</ECCENTRICITY><INCLINATION>51.8696</INCLINATION><RA_OF_ASC_NODE>312.8303</RA_OF_ASC_NODE><ARG_OF_PERICENTER>117.8794</ARG_OF_PERICENTER><MEAN_ANOMALY>242.2647</MEAN_ANOMALY></meanElements><tleParameters><EPHEMERIS_TYPE>0</EPHEMERIS_TYPE><CLASSIFICATION_TYPE>U</CLASSIFICATION_TYPE><NORAD_CAT_ID>63742</NORAD_CAT_ID><ELEMENT_SET_NO>999</ELEMENT_SET_NO><REV_AT_EPOCH>1632</REV_AT_EPOCH><BSTAR>.42632E-3</BSTAR><MEAN_MOTION_DOT>.15615E-3</MEAN_MOTION_DOT><MEAN_MOTION_DDOT>0</MEAN_MOTION_DDOT></tleParameters></data></segment></body></omm>
<omm id="CCSDS_OMM_VERS" version="2.0">
<header><CREATION_DATE/><ORIGINATOR/></header><body><segment><metadata><OBJECT_NAME>KUIPER-00030</OBJECT_NAME><OBJECT_ID>2025-088V</OBJECT_ID><CENTER_NAME>EARTH</CENTER_NAME><REF_FRAME>TEME</REF_FRAME><TIME_SYSTEM>UTC</TIME_SYSTEM><MEAN_ELEMENT_THEORY>SGP4</MEAN_ELEMENT_THEORY></metadata><data><meanElements><EPOCH>2025-08-11T22:00:01.999584</EPOCH><MEAN_MOTION>14.95968653</MEAN_MOTION><ECCENTRICITY>.0013838</ECCENTRICITY><INCLINATION>51.8923</INCLINATION><RA_OF_ASC_NODE>318.6022</RA_OF_ASC_NODE><ARG_OF_PERICENTER>103.3295</ARG_OF_PERICENTER><MEAN_ANOMALY>94.2142</MEAN_ANOMALY></meanElements><tleParameters><EPHEMERIS_TYPE>0</EPHEMERIS_TYPE><CLASSIFICATION_TYPE>U</CLASSIFICATION_TYPE><NORAD_CAT_ID>63743</NORAD_CAT_ID><ELEMENT_SET_NO>999</ELEMENT_SET_NO><REV_AT_EPOCH>1655</REV_AT_EPOCH><BSTAR>-.17609E+0</BSTAR><MEAN_MOTION_DOT>-.1815484E-1</MEAN_MOTION_DOT><MEAN_MOTION_DDOT>0</MEAN_MOTION_DDOT></tleParameters></data></segment></body></omm>
<omm id="CCSDS_OMM_VERS" version="2.0">
<header><CREATION_DATE/><ORIGINATOR/></header><body><segment><metadata><OBJECT_NAME>KUIPER-00031</OBJECT_NAME><OBJECT_ID>2025-088W</OBJECT_ID><CENTER_NAME>EARTH</CENTER_NAME><REF_FRAME>TEME</REF_FRAME><TIME_SYSTEM>UTC</TIME_SYSTEM><MEAN_ELEMENT_THEORY>SGP4</MEAN_ELEMENT_THEORY></metadata><data><meanElements><EPOCH>2025-08-11T22:00:01.999584</EPOCH><MEAN_MOTION>15.24854074</MEAN_MOTION><ECCENTRICITY>.000406</ECCENTRICITY><INCLINATION>51.8737</INCLINATION><RA_OF_ASC_NODE>311.2014</RA_OF_ASC_NODE><ARG_OF_PERICENTER>120.7265</ARG_OF_PERICENTER><MEAN_ANOMALY>71.2089</MEAN_ANOMALY></meanElements><tleParameters><EPHEMERIS_TYPE>0</EPHEMERIS_TYPE><CLASSIFICATION_TYPE>U</CLASSIFICATION_TYPE><NORAD_CAT_ID>63744</NORAD_CAT_ID><ELEMENT_SET_NO>999</ELEMENT_SET_NO><REV_AT_EPOCH>1637</REV_AT_EPOCH><BSTAR>-.83661E-3</BSTAR><MEAN_MOTION_DOT>-.21361E-3</MEAN_MOTION_DOT><MEAN_MOTION_DDOT>0</MEAN_MOTION_DDOT></tleParameters></data></segment></body></omm>
<omm id="CCSDS_OMM_VERS" version="2.0">
<header><CREATION_DATE/><ORIGINATOR/></header><body><segment><metadata><OBJECT_NAME>KUIPER-00032</OBJECT_NAME><OBJECT_ID>2025-088X</OBJECT_ID><CENTER_NAME>EARTH</CENTER_NAME><REF_FRAME>TEME</REF_FRAME><TIME_SYSTEM>UTC</TIME_SYSTEM><MEAN_ELEMENT_THEORY>SGP4</MEAN_ELEMENT_THEORY></metadata><data><meanElements><EPOCH>2025-08-11T13:00:27.921312</EPOCH><MEAN_MOTION>15.28996615</MEAN_MOTION><ECCENTRICITY>.000495</ECCENTRICITY><INCLINATION>51.8723</INCLINATION><RA_OF_ASC_NODE>313.4992</RA_OF_ASC_NODE><ARG_OF_PERICENTER>88.5410</ARG_OF_PERICENTER><MEAN_ANOMALY>271.6140</MEAN_ANOMALY></meanElements><tleParameters><EPHEMERIS_TYPE>0</EPHEMERIS_TYPE><CLASSIFICATION_TYPE>U</CLASSIFICATION_TYPE><NORAD_CAT_ID>63745</NORAD_CAT_ID><ELEMENT_SET_NO>999</ELEMENT_SET_NO><REV_AT_EPOCH>1731</REV_AT_EPOCH><BSTAR>.49069E-3</BSTAR><MEAN_MOTION_DOT>.13689E-3</MEAN_MOTION_DOT><MEAN_MOTION_DDOT>0</MEAN_MOTION_DDOT></tleParameters></data></segment></body></omm>
<omm id="CCSDS_OMM_VERS" version="2.0">
<header><CREATION_DATE/><ORIGINATOR/></header><body><segment><metadata><OBJECT_NAME>KUIPER-00033</OBJECT_NAME><OBJECT_ID>2025-088Y</OBJECT_ID><CENTER_NAME>EARTH</CENTER_NAME><REF_FRAME>TEME</REF_FRAME><TIME_SYSTEM>UTC</TIME_SYSTEM><MEAN_ELEMENT_THEORY>SGP4</MEAN_ELEMENT_THEORY></metadata><data><meanElements><EPOCH>2025-08-11T14:36:25.812576</EPOCH><MEAN_MOTION>14.79957812</MEAN_MOTION><ECCENTRICITY>.0002901</ECCENTRICITY><INCLINATION>51.9009</INCLINATION><RA_OF_ASC_NODE>335.5706</RA_OF_ASC_NODE><ARG_OF_PERICENTER>188.2711</ARG_OF_PERICENTER><MEAN_ANOMALY>171.8204</MEAN_ANOMALY></meanElements><tleParameters><EPHEMERIS_TYPE>0</EPHEMERIS_TYPE><CLASSIFICATION_TYPE>U</CLASSIFICATION_TYPE><NORAD_CAT_ID>63746</NORAD_CAT_ID><ELEMENT_SET_NO>999</ELEMENT_SET_NO><REV_AT_EPOCH>1649</REV_AT_EPOCH><BSTAR>.66495E-3</BSTAR><MEAN_MOTION_DOT>.4854E-4</MEAN_MOTION_DOT><MEAN_MOTION_DDOT>0</MEAN_MOTION_DDOT></tleParameters></data></segment></body></omm>
<omm id="CCSDS_OMM_VERS" version="2.0">
<header><CREATION_DATE/><ORIGINATOR/></header><body><segment><metadata><OBJECT_NAME>KUIPER-00034</OBJECT_NAME><OBJECT_ID>2025-088Z</OBJECT_ID><CENTER_NAME>EARTH</CENTER_NAME><REF_FRAME>TEME</REF_FRAME><TIME_SYSTEM>UTC</TIME_SYSTEM><MEAN_ELEMENT_THEORY>SGP4</MEAN_ELEMENT_THEORY></metadata><data><meanElements><EPOCH>2025-08-11T13:21:04.711392</EPOCH><MEAN_MOTION>15.38361001</MEAN_MOTION><ECCENTRICITY>.0001398</ECCENTRICITY><INCLINATION>51.8718</INCLINATION><RA_OF_ASC_NODE>312.1566</RA_OF_ASC_NODE><ARG_OF_PERICENTER>96.2286</ARG_OF_PERICENTER><MEAN_ANOMALY>263.8860</MEAN_ANOMALY></meanElements><tleParameters><EPHEMERIS_TYPE>0</EPHEMERIS_TYPE><CLASSIFICATION_TYPE>U</CLASSIFICATION_TYPE><NORAD_CAT_ID>63747</NORAD_CAT_ID><ELEMENT_SET_NO>999</ELEMENT_SET_NO><REV_AT_EPOCH>1649</REV_AT_EPOCH><BSTAR>.41944E-3</BSTAR><MEAN_MOTION_DOT>.15753E-3</MEAN_MOTION_DOT><MEAN_MOTION_DDOT>0</MEAN_MOTION_DDOT></tleParameters></data></segment></body></omm>

</ndm>
